NORAD_CAT_ID,OBJECT_NAME,OBJECT_TYPE,EPOCH,MEAN_MOTION,ECCENTRICITY,INCLINATION,RA_OF_ASC_NODE,ARG_OF_PERICENTER,MEAN_ANOMALY,BSTAR,MEAN_MOTION_DOT,MEAN_MOTION_DDOT,TLE_LINE0,TLE_LINE1,TLE_LINE2,SEMIMAJOR_AXIS,PERIOD,APOGEE,PERIGEE,DECAYED
54783.0,STARLINK-5439,PAYLOAD,2023-04-23 06:53:12,15.08841013,0.0001282,53.2155,69.0323,76.6517,283.4618,6.1505e-05,6.91e-06,0.0,0 STARLINK-5439,1 54783U 22175AB  23113.28694718  .00000691  00000-0  61505-4 0  9996,2 54783  53.2155  69.0323 0001282  76.6517 283.4618 15.08841013 19247,6917.877,95.437,540.629,538.855,0.0
54783.0,STARLINK-5439,PAYLOAD,2023-04-24 06:43:58,15.08856747,0.0001483,53.2174,64.5689,85.4741,274.6421,-1.8271e-05,-5.79e-06,0.0,0 STARLINK-5439,1 54783U 22175AB  23114.28053738 -.00000579  00000-0 -18271-4 0  9997,2 54783  53.2174  64.5689 0001483  85.4741 274.6421 15.08856747 19393,6917.829,95.436,540.72,538.668,0.0
54783.0,STARLINK-5439,PAYLOAD,2023-04-25 06:34:43,15.08860971,0.0001304,53.2186,60.108,89.7739,270.3403,0.00014821,2.073e-05,0.0,0 STARLINK-5439,1 54783U 22175AB  23115.27411920  .00002073  00000-0  14821-3 0  9993,2 54783  53.2186  60.1080 0001304  89.7739 270.3403 15.08860971 19543,6917.816,95.436,540.583,538.779,0.0
54783.0,STARLINK-5439,PAYLOAD,2023-04-26 03:14:48,15.08820982,0.0001316,53.219,56.2433,93.7867,266.3275,-0.00030448,-5.128e-05,0.0,0 STARLINK-5439,1 54783U 22175AB  23116.13528571 -.00005128  00000-0 -30448-3 0  9999,2 54783  53.2190  56.2433 0001316  93.7867 266.3275 15.08820982 19670,6917.939,95.439,540.714,538.893,0.0
54783.0,STARLINK-5439,PAYLOAD,2023-04-27 06:16:21,15.08848802,0.000193,53.2192,51.1874,138.2624,221.8516,-0.00044293,-7.332e-05,0.0,0 STARLINK-5439,1 54783U 22175AB  23117.26136229 -.00007332  00000-0 -44293-3 0  9991,2 54783  53.2192  51.1874 0001930 138.2624 221.8516 15.08848802 19847,6917.853,95.437,541.054,538.383,0.0
54783.0,STARLINK-5439,PAYLOAD,2023-04-28 01:20:58,15.08838754,0.000123,53.2186,47.6212,92.1496,267.9637,0.00035734,5.404e-05,0.0,0 STARLINK-5439,1 54783U 22175AB  23118.05623145  .00005404  00000-0  35734-3 0  9993,2 54783  53.2186  47.6212 0001230  92.1496 267.9637 15.08838754 19967,6917.884,95.438,540.6,538.898,0.0
54783.0,STARLINK-5439,PAYLOAD,2023-04-28 12:28:41,15.08831524,0.0001496,53.2205,45.5409,84.8363,275.28,0.0003289,4.949e-05,0.0,0 STARLINK-5439,1 54783U 22175AB  23118.51992138  .00004949  00000-0  32890-3 0  9998,2 54783  53.2205  45.5409 0001496  84.8363 275.2800 15.08831524 22190,6917.906,95.438,540.806,538.736,0.0
54783.0,STARLINK-5439,PAYLOAD,2023-04-28 18:50:13,15.08852247,0.0001543,53.2179,44.3528,79.6024,280.5142,2.2399e-05,6.9e-07,0.0,0 STARLINK-5439,1 54783U 22175AB  23118.78488165  .00000069  00000-0  22399-4 0  9990,2 54783  53.2179  44.3528 0001543  79.6024 280.5142 15.08852247 20076,6917.843,95.437,540.775,538.641,0.0
54783.0,STARLINK-5439,PAYLOAD,2023-04-29 01:11:46,15.08845512,0.0001129,53.2182,43.1633,78.2371,281.8747,-4.0841e-05,-9.38e-06,0.0,0 STARLINK-5439,1 54783U 22175AB  23119.04984508 -.00000938  00000-0 -40841-4 0  9991,2 54783  53.2182  43.1633 0001129  78.2371 281.8747 15.08845512 20111,6917.864,95.437,540.51,538.948,0.0
54783.0,STARLINK-5439,PAYLOAD,2023-04-29 04:22:32,15.08852417,0.0001265,53.22,42.5664,98.419,261.6946,3.2814e-05,2.35e-06,0.0,0 STARLINK-5439,1 54783U 22175AB  23119.18231648  .00000235  00000-0  32814-4 0  9995,2 54783  53.2200  42.5664 0001265  98.4190 261.6946 15.08852417 20134,6917.842,95.437,540.583,538.832,0.0
54783.0,STARLINK-5439,PAYLOAD,2023-04-29 18:41:00,15.08847486,0.000145,53.2185,39.8898,97.77,262.3457,-3.5302e-05,-8.5e-06,0.0,0 STARLINK-5439,1 54783U 22175AB  23119.77847842 -.00000850  00000-0 -35302-4 0  9999,2 54783  53.2185  39.8898 0001450  97.7700 262.3457 15.08847486 20224,6917.858,95.437,540.726,538.719,0.0
54783.0,STARLINK-5439,PAYLOAD,2023-04-30 04:13:18,15.08857881,0.0001334,53.2187,38.1052,100.8736,259.2406,-5.6846e-05,-1.193e-05,0.0,0 STARLINK-5439,1 54783U 22175AB  23120.17591025 -.00001193  00000-0 -56846-4 0  9991,2 54783  53.2187  38.1052 0001334 100.8736 259.2406 15.08857881 20281,6917.826,95.436,540.614,538.768,0.0
54783.0,STARLINK-5439,PAYLOAD,2023-05-01 00:53:20,15.08842111,0.0001341,53.2187,34.2356,107.454,252.6599,-4.2091e-05,-9.58e-06,0.0,0 STARLINK-5439,1 54783U 22175AB  23121.03703765 -.00000958  00000-0 -42091-4 0  9998,2 54783  53.2187  34.2356 0001341 107.4540 252.6599 15.08842111 20414,6917.874,95.437,540.667,538.811,0.0
54783.0,STARLINK-5439,PAYLOAD,2023-05-01 04:04:06,15.08842024,0.0001365,53.2192,33.6425,107.9292,252.1849,-5.7148e-05,-1.197e-05,0.0,0 STARLINK-5439,1 54783U 22175AB  23121.16951822 -.00001197  00000-0 -57148-4 0  9996,2 54783  53.2192  33.6425 0001365 107.9292 252.1849 15.08842024 22592,6917.874,95.437,540.683,538.795,0.0
54783.0,STARLINK-5439,PAYLOAD,2023-05-01 21:33:20,15.088437,0.0001273,53.2191,30.3716,109.3214,250.7916,-9.6143e-06,-4.41e-06,0.0,0 STARLINK-5439,1 54783U 22175AB  23121.89815588 -.00000441  00000-0 -96143-5 0  9994,2 54783  53.2191  30.3716 0001273 109.3214 250.7916 15.08843700 22700,6917.869,95.437,540.615,538.853,0.0
54783.0,STARLINK-5439,PAYLOAD,2023-05-02 02:19:29,15.08848364,0.0001172,53.22,29.4816,81.5698,278.5427,3.2153e-05,2.24e-06,0.0,0 STARLINK-5439,1 54783U 22175AB  23122.09687227  .00000224  00000-0  32153-4 0  9991,2 54783  53.2200  29.4816 0001172  81.5698 278.5427 15.08848364 20575,6917.855,95.437,540.531,538.909,0.0
54783.0,STARLINK-5439,PAYLOAD,2023-05-02 03:54:52,15.08848849,0.0001164,53.2201,29.184,83.6132,276.4992,3.9544e-05,3.42e-06,0.0,0 STARLINK-5439,1 54783U 22175AB  23122.16311167  .00000342  00000-0  39544-4 0  9998,2 54783  53.2201  29.1840 0001164  83.6132 276.4992 15.08848849 22740,6917.853,95.437,540.524,538.913,0.0
54783.0,STARLINK-5439,PAYLOAD,2023-05-02 16:37:58,15.08835716,0.0001293,53.2202,26.8058,69.7071,290.406,5.727e-05,6.24e-06,0.0,0 STARLINK-5439,1 54783U 22175AB  23122.69303862  .00000624  00000-0  57270-4 0  9998,2 54783  53.2202  26.8058 0001293  69.7071 290.4060 15.08835716 20666,6917.893,95.438,540.653,538.864,0.0
54783.0,STARLINK-5439,PAYLOAD,2023-05-02 21:24:07,15.08838614,0.0001098,53.2193,25.914,91.6241,268.4876,1.5879e-05,-3.5e-07,0.0,0 STARLINK-5439,1 54783U 22175AB  23122.89175862 -.00000035  00000-0  15879-4 0  9993,2 54783  53.2193  25.9140 0001098  91.6241 268.4876 15.08838614 22856,6917.885,95.438,540.509,538.99,0.0
54783.0,STARLINK-5439,PAYLOAD,2023-05-03 10:07:13,15.08836182,9.32e-05,53.2179,23.5354,83.2664,276.8434,-9.9207e-06,-4.46e-06,0.0,0 STARLINK-5439,1 54783U 22175AB  23123.42168114 -.00000446  00000-0 -99207-5 0  9990,2 54783  53.2179  23.5354 0000932  83.2664 276.8434 15.08836182 22933,6917.892,95.438,540.402,539.112,0.0
54783.0,STARLINK-5439,PAYLOAD,2023-05-03 21:14:55,15.08838699,8.89e-05,53.2178,21.4538,79.3718,280.7374,-7.7428e-05,-1.52e-05,0.0,0 STARLINK-5439,1 54783U 22175AB  23123.88536407 -.00001520  00000-0 -77428-4 0  9998,2 54783  53.2178  21.4538 0000889  79.3718 280.7374 15.08838699 23001,6917.884,95.438,540.364,539.134,0.0
54783.0,STARLINK-5439,PAYLOAD,2023-05-04 02:01:04,15.08843083,0.000111,53.2192,20.5618,79.9694,280.1424,-3.7914e-05,-8.91e-06,0.0,0 STARLINK-5439,1 54783U 22175AB  23124.08408001 -.00000891  00000-0 -37914-4 0  9995,2 54783  53.2192  20.5618 0001110  79.9694 280.1424 15.08843083 20878,6917.871,95.437,540.504,538.968,0.0
54783.0,STARLINK-5439,PAYLOAD,2023-05-04 09:58:00,15.0884023,0.0001083,53.2187,19.0744,84.9689,275.1427,-3.7657e-05,-8.87e-06,0.0,0 STARLINK-5439,1 54783U 22175AB  23124.41528181 -.00000887  00000-0 -37657-4 0  9993,2 54783  53.2187  19.0744 0001083  84.9689 275.1427 15.08840230 23088,6917.88,95.438,540.494,538.995,0.0
54783.0,STARLINK-5439,PAYLOAD,2023-05-04 21:05:42,15.08839861,0.0001114,53.2187,16.9934,86.9658,273.1462,4.826e-05,4.8e-06,0.0,0 STARLINK-5439,1 54783U 22175AB  23124.87896044  .00000480  00000-0  48260-4 0  9998,2 54783  53.2187  16.9934 0001114  86.9658 273.1462 15.08839861 23151,6917.881,95.438,540.516,538.975,0.0
54783.0,STARLINK-5439,PAYLOAD,2023-05-05 20:56:29,15.08831787,9.87e-05,53.2185,12.5335,86.4649,273.6456,5.0886e-05,5.22e-06,0.0,0 STARLINK-5439,1 54783U 22175AB  23125.87256795  .00000522  00000-0  50886-4 0  9996,2 54783  53.2185  12.5335 0000987  86.4649 273.6456 15.08831787 23302,6917.905,95.438,540.453,539.088,0.0
54783.0,STARLINK-5439,PAYLOAD,2023-05-05 22:31:52,15.08838698,0.0001073,53.2192,12.237,100.5413,259.57,-2.5923e-05,-7e-06,0.0,0 STARLINK-5439,1 54783U 22175AB  23125.93880663 -.00000700  00000-0 -25923-4 0  9994,2 54783  53.2192  12.2370 0001073 100.5413 259.5700 15.08838698 21154,6917.884,95.438,540.492,539.007,0.0
54783.0,STARLINK-5439,PAYLOAD,2023-05-06 22:22:39,15.08847691,0.0001107,53.2184,7.7754,89.9359,270.176,6.6124e-05,7.65e-06,0.0,0 STARLINK-5439,1 54783U 22175AB  23126.93239956  .00000765  00000-0  66124-4 0  9995,2 54783  53.2184   7.7754 0001107  89.9359 270.1760 15.08847691 21302,6917.857,95.437,540.488,538.956,0.0
54783.0,STARLINK-5439,PAYLOAD,2023-05-07 19:02:40,15.08838717,0.0001145,53.2183,3.909,95.612,264.5003,4.0222e-05,3.52e-06,0.0,0 STARLINK-5439,1 54783U 22175AB  23127.79352699  .00000352  00000-0  40222-4 0  9993,2 54783  53.2183   3.9090 0001145  95.6120 264.5003 15.08838717 21434,6917.884,95.438,540.541,538.957,0.0
54783.0,STARLINK-5439,PAYLOAD,2023-05-07 22:13:26,15.08840969,9.77e-05,53.2181,3.3168,81.8752,278.2351,1.307e-05,-8e-07,0.0,0 STARLINK-5439,1 54783U 22175AB  23127.92600679 -.00000080  00000-0  13070-4 0  9992,2 54783  53.2181   3.3168 0000977  81.8752 278.2351 15.08840969 23614,6917.877,95.437,540.418,539.067,0.0
54783.0,STARLINK-5439,PAYLOAD,2023-05-08 20:28:50,15.08851436,0.0001158,53.2185,359.1516,104.6639,255.4482,-4.894e-05,-1.067e-05,0.0,0 STARLINK-5439,1 54783U 22175AB  23128.85336186 -.00001067  00000-0 -48940-4 0  9995,2 54783  53.2185 359.1516 0001158 104.6639 255.4482 15.08851436 21595,6917.845,95.437,540.512,538.909,0.0
